STARLINK-2022           
1 47643U 21012Z   24225.91799414  .00059326  00000+0  39653-2 0  9991
2 47643  53.0532 107.3785 0001379 117.9990 242.1139 15.06428102193780
